1 90000           19337.16666667 -.00000187  00000-0 -34277-3 0 00003
2 90000 053.9029 308.6417 0008073 268.9635 076.9092 13.39847190000014
1 90001           19337.16666667 -.00000163  00000-0 -29968-3 0 00009
2 90001 053.9029 308.6417 0008072 268.9656 084.1071 13.39847176000019
1 90002           19337.16666667 -.00000130  00000-0 -23818-3 0 00002
2 90002 053.9029 308.6417 0008071 268.9652 091.3076 13.39847150000012
1 90003           19337.16666667 -.00000089  00000-0 -16345-3 0 00003
2 90003 053.9028 308.6417 0008071 268.9628 098.5100 13.39847114000012
1 90004           19337.16666667 -.00000044  00000-0 -80313-4 0 00002
2 90004 053.9028 308.6417 0008070 268.9592 105.7137 13.39847070000014
1 90005           19337.16666667  .00000002  00000-0  40358-5 0 00001
2 90005 053.9028 308.6416 0008070 268.9551 112.9178 13.39847023000012
1 90006           19337.16666667  .00000046  00000-0  84885-4 0 00002
2 90006 053.9028 308.6416 0008071 268.9516 120.1214 13.39846976000013
1 90007           19337.16666667  .00000085  00000-0  15644-3 0 00002
2 90007 053.9028 308.6416 0008071 268.9496 127.3234 13.39846932000014
1 90008           19337.16666667  .00000116  00000-0  21342-3 0 00000
2 90008 053.9028 308.6416 0008072 268.9498 134.5232 13.39846893000012
1 90009           19337.16666667  .00000137  00000-0  25159-3 0 00004
2 90009 053.9028 308.6416 0008073 268.9525 141.7206 13.39846863000013
1 90010           19337.16666667  .00000146  00000-0  26802-3 0 00002
2 90010 053.9028 308.6416 0008073 268.9576 148.9155 13.39846844000012
1 90011           19337.16666667  .00000142  00000-0  26122-3 0 00004
2 90011 053.9028 308.6416 0008074 268.9647 156.1084 13.39846838000018
1 90012           19337.16666667  .00000126  00000-0  23117-3 0 00008
2 90012 053.9029 308.6416 0008074 268.9731 163.3000 13.39846846000011
1 90013           19337.16666667  .00000098  00000-0  17939-3 0 00002
2 90013 053.9029 308.6416 0008073 268.9816 170.4915 13.39846868000013
1 90014           19337.16666667  .00000059  00000-0  10884-3 0 00002
2 90014 053.9029 308.6416 0008072 268.9891 177.6840 13.39846902000011
1 90015           19337.16666667  .00000013  00000-0  23748-4 0 00007
2 90015 053.9029 308.6416 0008071 268.9945 184.8785 13.39846948000019
1 90016           19337.16666667 -.00000039  00000-0 -70736-4 0 00007
2 90016 053.9029 308.6416 0008070 268.9971 192.0759 13.39847003000013
1 90017           19337.16666667 -.00000092  00000-0 -16881-3 0 00007
2 90017 053.9029 308.6416 0008068 268.9964 199.2765 13.39847064000016
1 90018           19337.16666667 -.00000144  00000-0 -26433-3 0 00000
2 90018 053.9029 308.6416 0008067 268.9924 206.4805 13.39847127000018
1 90019           19337.16666667 -.00000192  00000-0 -35120-3 0 00007
2 90019 053.9029 308.6416 0008066 268.9856 213.6872 13.39847189000014
1 90020           19337.16666667 -.00000231  00000-0 -42385-3 0 00004
2 90020 053.9029 308.6416 0008065 268.9767 220.8961 13.39847246000019
1 90021           19337.16666667 -.00000261  00000-0 -47757-3 0 00006
2 90021 053.9029 308.6416 0008064 268.9667 228.1060 13.39847294000012
1 90022           19337.16666667 -.00000278  00000-0 -50875-3 0 00000
2 90022 053.9029 308.6417 0008065 268.9569 235.3158 13.39847332000017
1 90023           19337.16666667 -.00000281  00000-0 -51493-3 0 00002
2 90023 053.9029 308.6417 0008065 268.9484 242.5242 13.39847357000015
1 90024           19337.16666667 -.00000270  00000-0 -49508-3 0 00005
2 90024 053.9029 308.6417 0008066 268.9422 249.7303 13.39847366000016
1 90025           19337.16666667 -.00000245  00000-0 -44991-3 0 00009
2 90025 053.9029 308.6417 0008067 268.9391 256.9335 13.39847360000012
1 90026           19337.16666667 -.00000210  00000-0 -38414-3 0 00005
2 90026 053.9029 308.6417 0008068 268.9388 264.1337 13.39847341000012
1 90027           19337.16666667 -.00000163  00000-0 -29830-3 0 00005
2 90027 053.9029 308.6417 0008069 268.9419 271.3306 13.39847307000017
1 90028           19337.16666667 -.00000107  00000-0 -19623-3 0 00003
2 90028 053.9028 308.6417 0008070 268.9477 278.5249 13.39847259000014
1 90029           19337.16666667 -.00000048  00000-0 -88683-4 0 00001
2 90029 053.9028 308.6417 0008071 268.9548 285.7178 13.39847204000016
1 90030           19337.16666667  .00000012  00000-0  21186-4 0 00007
2 90030 053.9028 308.6416 0008071 268.9624 292.9102 13.39847144000012
1 90031           19337.16666667  .00000069  00000-0  12739-3 0 00003
2 90031 053.9028 308.6416 0008070 268.9693 300.1034 13.39847080000013
1 90032           19337.16666667  .00000122  00000-0  22381-3 0 00008
2 90032 053.9028 308.6416 0008069 268.9744 307.2984 13.39847018000012
1 90033           19337.16666667  .00000166  00000-0  30476-3 0 00001
2 90033 053.9028 308.6416 0008068 268.9767 314.4961 13.39846959000015
1 90034           19337.16666667  .00000199  00000-0  36561-3 0 00009
2 90034 053.9028 308.6416 0008067 268.9758 321.6971 13.39846909000011
1 90035           19337.16666667  .00000220  00000-0  40312-3 0 00004
2 90035 053.9028 308.6416 0008066 268.9717 328.9012 13.39846869000017
1 90036           19337.16666667  .00000227  00000-0  41548-3 0 00004
2 90036 053.9028 308.6416 0008065 268.9647 336.1083 13.39846841000018
1 90037           19337.16666667  .00000219  00000-0  40229-3 0 00001
2 90037 053.9029 308.6416 0008065 268.9556 343.3174 13.39846827000014
1 90038           19337.16666667  .00000199  00000-0  36465-3 0 00006
2 90038 053.9029 308.6416 0008065 268.9455 350.5276 13.39846827000016
1 90039           19337.16666667  .00000166  00000-0  30518-3 0 00004
2 90039 053.9029 308.6416 0008065 268.9356 357.7374 13.39846841000011
1 90040           19337.16666667  .00000124  00000-0  22785-3 0 00007
2 90040 053.9029 308.6416 0008066 268.9272 004.9459 13.39846867000014
1 90041           19337.16666667  .00000075  00000-0  13770-3 0 00007
2 90041 053.9029 308.6416 0008067 268.9213 012.1518 13.39846904000010
1 90042           19337.16666667  .00000022  00000-0  40553-4 0 00000
2 90042 053.9029 308.6416 0008069 268.9184 019.3546 13.39846948000018
1 90043           19337.16666667 -.00000031  00000-0 -57390-4 0 00000
2 90043 053.9029 308.6416 0008070 268.9188 026.5542 13.39846996000014
1 90044           19337.16666667 -.00000082  00000-0 -14996-3 0 00001
2 90044 053.9029 308.6416 0008072 268.9223 033.7506 13.39847045000013
1 90045           19337.16666667 -.00000126  00000-0 -23146-3 0 00008
2 90045 053.9029 308.6416 0008073 268.9284 040.9445 13.39847091000015
1 90046           19337.16666667 -.00000162  00000-0 -29702-3 0 00003
2 90046 053.9029 308.6416 0008073 268.9361 048.1367 13.39847131000010
1 90047           19337.16666667 -.00000187  00000-0 -34282-3 0 00000
2 90047 053.9029 308.6417 0008074 268.9446 055.3283 13.39847164000010
1 90048           19337.16666667 -.00000200  00000-0 -36626-3 0 00001
2 90048 053.9029 308.6417 0008074 268.9525 062.5203 13.39847185000014
1 90049           19337.16666667 -.00000200  00000-0 -36610-3 0 00005
2 90049 053.9029 308.6417 0008073 268.9591 069.7137 13.39847194000012
